0 SL-14 DEB *
1 35519U 87068CN  13279.53311548  .00002824  00000-0  12015-2 0  2725
2 35519 082.8450 314.5119 0023572 294.0644 065.8073 14.24799398474385
0 SL-14 DEB *
1 35519U 87068CN  13286.48544431  .00003467  00000-0  14751-2 0  2730
2 35519 082.8450 308.8403 0024070 272.1440 087.6987 14.24844054475378
0 SL-14 DEB *
1 35519U 87068CN  13288.03037905  .00005261  00000-0  22407-2 0  2748
2 35519 082.8444 307.5795 0024062 267.4538 092.3891 14.24857055475593
0 SL-14 DEB *
1 35519U 87068CN  13292.45443667  .00004336  00000-0  18446-2 0  2756
2 35519 082.8438 303.9668 0024226 253.9470 105.9046 14.24887921476221
